ORBCOMM FM05 [-]        
1 25117U 97084F   24041.49819881  .00003817  00000+0  11918-2 0  9993
2 25117  45.0135 206.3761 0002840 247.7464 112.3085 14.42141081370331
ORBCOMM FM06 [+]        
1 25118U 97084G   24040.49366681  .00003340  00000+0  10488-2 0  9990
2 25118  45.0127 211.3510 0001855 247.6872 141.7873 14.42121837370167
ORBCOMM FM07 [-]        
1 25119U 97084H   24040.47459478  .00003024  00000+0  95511-3 0  9996
2 25119  45.0122 211.9307 0003590 235.9032 124.1478 14.42053436370153
ORBCOMM FM03 [-]        
1 25158U 98007B   24041.40394557  .00002649  00000+0  10259-2 0  9992
2 25158 107.9749 205.2901 0045963  26.8007 333.5493 14.31811499353584
ORBCOMM FM04 [+]        
1 25159U 98007C   24041.40869879  .00002568  00000+0  99291-3 0  9991
2 25159 107.9737 208.1776 0041579  24.3520 335.9572 14.32066852353722
ORBCOMM FM17 [-]        
1 25413U 98046A   24041.06696410  .00001764  00000+0  69241-3 0  9997
2 25413  44.9955  60.5589 0004223 268.8963  91.1400 14.32789586332566
ORBCOMM FM18 [-]        
1 25414U 98046B   24040.95328728  .00002712  00000+0  98376-3 0  9994
2 25414  44.9953 350.0693 0005780 319.3072  40.7343 14.35439408333475
ORBCOMM FM19 [+]        
1 25415U 98046C   24040.23999611  .00002597  00000+0  94725-3 0  9996
2 25415  44.9962 354.7273 0004681 309.0357 190.7926 14.35277093333161
